[{"OBJECT_NAME":"STARLINK-5396","OBJECT_ID":"2022-177AZ","EPOCH":"2026-03-09T22:00:01.999584","MEAN_MOTION":15.08154697,"ECCENTRICITY":0.00025703,"INCLINATION":43.0004,"RA_OF_ASC_NODE":118.8207,"ARG_OF_PERICENTER":244.0185,"MEAN_ANOMALY":76.2139,"EPHEMERIS_TYPE":0,"CLASSIFICATION_TYPE":"U","NORAD_CAT_ID":54867,"ELEMENT_SET_NO":999,"REV_AT_EPOCH":572,"BSTAR":0.0015164479,"MEAN_MOTION_DOT":0.00023695,"MEAN_MOTION_DDOT":0},{"OBJECT_NAME":"LEMUR-2-STELLA","OBJECT_ID":"2024-149BT","EPOCH":"2026-03-09T17:26:15.951264","MEAN_MOTION":15.09464064,"ECCENTRICITY":0.0001299,"INCLINATION":97.6764,"RA_OF_ASC_NODE":150.9122,"ARG_OF_PERICENTER":95.1117,"MEAN_ANOMALY":265.026,"EPHEMERIS_TYPE":0,"CLASSIFICATION_TYPE":"U","NORAD_CAT_ID":60533,"ELEMENT_SET_NO":999,"REV_AT_EPOCH":8548,"BSTAR":0.00085776432,"MEAN_MOTION_DOT":0.00013685,"MEAN_MOTION_DDOT":0}]
